1 39166U 13023A   15152.17677593 -.00000045  00000-0  10000-3 0  9997
2 39166  55.4300  70.0232 0024006   6.7629 353.2673  2.00561667 14962
